HULIANWANG DIGUI-81     
1 65313U 25187J   26064.83238204 -.00000092  00000+0  69532-4 0  9999
2 65313  50.0056 216.5109 0001059 138.9713 221.1239 13.29341441 25961
HULIANWANG DIGUI-82     
1 65817U 25220A   26064.81454181  .00000054  00000+0  91664-4 0  9996
2 65817  86.4896  78.7750 0002264 100.3578 259.7812 13.24421871 21237
HULIANWANG DIGUI-83     
1 65818U 25220B   26064.80703662  .00000040  00000+0  58526-4 0  9992
2 65818  86.4919  78.8079 0002256 100.3421 259.7968 13.24421063 21232
HULIANWANG DIGUI-84     
1 65819U 25220C   26064.79945453  .00000033  00000+0  41935-4 0  9995
2 65819  86.4856  78.7012 0002250  99.5244 260.6144 13.24421520 21230
HULIANWANG DIGUI-85     
1 65820U 25220D   26064.79185347  .00000019  00000+0  10789-4 0  9992
2 65820  86.4917  78.7981 0002243 100.8102 259.3285 13.24422033 21237
HULIANWANG DIGUI-86     
1 65821U 25220E   26064.78438707  .00000025  00000+0  25123-4 0  9998
2 65821  86.4896  78.7593 0002241 100.3130 259.8257 13.24420907 21239
HULIANWANG DIGUI-87     
1 65995U 25231A   26064.79360442 -.00000086  00000+0  82088-4 0  9994
2 65995  49.9991 186.6974 0000606 185.0842 175.0024 13.29330283 19135
HULIANWANG DIGUI-88     
1 65996U 25231B   26064.72680127 -.00000080  00000+0  94304-4 0  9991
2 65996  49.9977 186.9969 0000629 190.1927 169.8932 13.29329384 19121
HULIANWANG DIGUI-89     
1 65997U 25231C   26064.78524882 -.00000077  00000+0  10237-3 0  9991
2 65997  49.9955 186.6144 0000639 191.4607 168.6250 13.29329979 19131
HULIANWANG DIGUI-90     
1 65998U 25231D   26064.70171580 -.00000087  00000+0  79074-4 0  9993
2 65998  49.9984 186.8740 0000610 191.8033 168.2825 13.29330107 19122
HULIANWANG DIGUI-91     
1 65999U 25231E   26064.76854354 -.00000088  00000+0  77803-4 0  9996
2 65999  50.0003 186.5851 0000625 190.7259 169.3599 13.29330063 19134
HULIANWANG DIGUI-92     
1 66000U 25231F   26064.76017987 -.00000086  00000+0  82891-4 0  9994
2 66000  50.0044 186.5869 0000626 191.4047 168.6811 13.29330606 19138
HULIANWANG DIGUI-93     
1 66001U 25231G   26064.66832826 -.00000085  00000+0  84360-4 0  9993
2 66001  50.0011 186.7367 0000612 190.3653 169.7206 13.29329711 19128
HULIANWANG DIGUI-94     
1 66002U 25231H   26064.75182833 -.00000085  00000+0  84035-4 0  9999
2 66002  50.0050 186.5551 0000629 191.9354 168.1504 13.29330859 19138
HULIANWANG DIGUI-95     
1 66003U 25231J   26064.73529939 -.00000083  00000+0  88718-4 0  9990
2 66003  50.0023 186.4386 0000633 188.9861 171.1000 13.29325832 19138
HULIANWANG DIGUI-96     
1 66412U 25258A   26064.68360145 -.00000057  00000+0  14410-3 0  9997
2 66412  50.0049 306.8580 0000397  99.0501 261.0416 13.29331498 15966
